[{"OBJECT_NAME":"STARLINK-35181","OBJECT_ID":"2025-211Q","EPOCH":"2026-03-09T16:28:13.238976","MEAN_MOTION":15.0565216,"ECCENTRICITY":9.335e-5,"INCLINATION":97.6025,"RA_OF_ASC_NODE":114.0977,"ARG_OF_PERICENTER":139.3212,"MEAN_ANOMALY":220.8085,"EPHEMERIS_TYPE":0,"CLASSIFICATION_TYPE":"U","NORAD_CAT_ID":65666,"ELEMENT_SET_NO":999,"REV_AT_EPOCH":2704,"BSTAR":0.00022959952,"MEAN_MOTION_DOT":3.254e-5,"MEAN_MOTION_DDOT":0},{"OBJECT_NAME":"MINOTAUR 4 DEB","OBJECT_ID":"2020-046AB","EPOCH":"2026-03-09T21:53:22.840224","MEAN_MOTION":15.04149387,"ECCENTRICITY":0.00103054,"INCLINATION":53.9803,"RA_OF_ASC_NODE":316.6393,"ARG_OF_PERICENTER":80.1776,"MEAN_ANOMALY":280.0387,"EPHEMERIS_TYPE":0,"CLASSIFICATION_TYPE":"U","NORAD_CAT_ID":52037,"ELEMENT_SET_NO":999,"REV_AT_EPOCH":22693,"BSTAR":0.00012711185,"MEAN_MOTION_DOT":1.507e-5,"MEAN_MOTION_DDOT":0}]
